NORAD_CAT_ID,OBJECT_NAME,OBJECT_TYPE,EPOCH,MEAN_MOTION,ECCENTRICITY,INCLINATION,RA_OF_ASC_NODE,ARG_OF_PERICENTER,MEAN_ANOMALY,BSTAR,MEAN_MOTION_DOT,MEAN_MOTION_DDOT,TLE_LINE0,TLE_LINE1,TLE_LINE2,SEMIMAJOR_AXIS,PERIOD,APOGEE,PERIGEE,DECAYED
55937.0,STARLINK-5913,PAYLOAD,2023-05-03 20:58:07,15.69928036,0.0003096,70.002,48.6322,249.809,110.2773,1.6806e-05,1.809e-05,0.0,0 STARLINK-5913,1 55937U 23037Z   23123.87369453  .00001809  00000-0  16806-4 0  9993,2 55937  70.0020  48.6322 0003096 249.8090 110.2773 15.69928036  7585,6737.24,91.724,361.191,357.019,0.0
55937.0,STARLINK-5913,PAYLOAD,2023-05-04 04:36:52,15.69926656,0.0003153,70.0014,47.7351,259.6007,100.4834,1.6412e-05,1.761e-05,0.0,0 STARLINK-5913,1 55937U 23037Z   23124.19227928  .00001761  00000-0  16412-4 0  9999,2 55937  70.0014  47.7351 0003153 259.6007 100.4834 15.69926656  7979,6737.244,91.724,361.233,356.985,0.0
55937.0,STARLINK-5913,PAYLOAD,2023-05-04 21:26:09,15.69925663,0.0003246,70.0016,45.7651,258.1723,101.9109,2.9503e-05,3.336e-05,0.0,0 STARLINK-5913,1 55937U 23037Z   23124.89316352  .00003336  00000-0  29503-4 0  9991,2 55937  70.0016  45.7651 0003246 258.1723 101.9109 15.69925663  7747,6737.247,91.724,361.299,356.925,0.0
55937.0,STARLINK-5913,PAYLOAD,2023-05-05 05:04:55,15.69917986,0.0003362,70.0012,44.8693,259.4731,100.6086,4.2864e-05,4.943e-05,0.0,0 STARLINK-5913,1 55937U 23037Z   23125.21175141  .00004943  00000-0  42864-4 0  9997,2 55937  70.0012  44.8693 0003362 259.4731 100.6086 15.69917986  8134,6737.269,91.725,361.399,356.869,0.0
55937.0,STARLINK-5913,PAYLOAD,2023-05-05 20:22:25,15.69929082,0.000337,70.0013,43.0781,259.1444,100.9373,1.4549e-05,1.537e-05,0.0,0 STARLINK-5913,1 55937U 23037Z   23125.84891149  .00001537  00000-0  14549-4 0  9994,2 55937  70.0013  43.0781 0003370 259.1444 100.9373 15.69929082  7895,6737.237,91.724,361.372,356.831,0.0
55937.0,STARLINK-5913,PAYLOAD,2023-05-05 21:54:11,15.69929458,0.0003369,70.0013,42.899,259.3878,100.6938,1.4803e-05,1.568e-05,0.0,0 STARLINK-5913,1 55937U 23037Z   23125.91262783  .00001568  00000-0  14803-4 0  9995,2 55937  70.0013  42.8990 0003369 259.3878 100.6938 15.69929458  8246,6737.236,91.724,361.371,356.831,0.0
55937.0,STARLINK-5913,PAYLOAD,2023-05-06 04:01:11,15.69931787,0.0003505,70.0014,42.184,258.4412,101.639,2.0603e-05,2.266e-05,0.0,0 STARLINK-5913,1 55937U 23037Z   23126.16749306  .00002266  00000-0  20603-4 0  9995,2 55937  70.0014  42.1840 0003505 258.4412 101.6390 15.69931787  7947,6737.229,91.724,361.456,356.733,0.0
55937.0,STARLINK-5913,PAYLOAD,2023-05-06 22:22:12,15.69932855,0.0004185,70.0019,40.0342,267.8913,92.1803,1.5487e-05,1.65e-05,0.0,0 STARLINK-5913,1 55937U 23037Z   23126.93208920  .00001650  00000-0  15487-4 0  9992,2 55937  70.0019  40.0342 0004185 267.8913  92.1803 15.69932855  8403,6737.226,91.724,361.911,356.272,0.0
55937.0,STARLINK-5913,PAYLOAD,2023-05-07 02:57:29,15.69911596,0.0003795,70.0012,39.4969,268.9897,91.0864,-2.1271e-05,-2.769e-05,0.0,0 STARLINK-5913,1 55937U 23037Z   23127.12325260 -.00002769  00000-0 -21271-4 0  9993,2 55937  70.0012  39.4969 0003795 268.9897  91.0864 15.69911596  8439,6737.287,91.725,361.709,356.595,0.0
55937.0,STARLINK-5913,PAYLOAD,2023-05-07 21:18:30,15.69924049,0.0003948,70.0016,37.3469,270.1461,89.9283,-2.7344e-06,-5.42e-06,0.0,0 STARLINK-5913,1 55937U 23037Z   23127.88784986 -.00000542  00000-0 -27344-5 0  9995,2 55937  70.0016  37.3469 0003948 270.1461  89.9283 15.69924049  8558,6737.251,91.724,361.776,356.456,0.0
55937.0,STARLINK-5913,PAYLOAD,2023-05-08 11:04:16,15.699363,0.000375,70.0019,35.7344,267.1537,92.923,5.8388e-05,6.817e-05,0.0,0 STARLINK-5913,1 55937U 23037Z   23128.46129656  .00006817  00000-0  58388-4 0  9997,2 55937  70.0019  35.7344 0003750 267.1537  92.9230 15.69936300  8645,6737.216,91.723,361.608,356.555,0.0
55937.0,STARLINK-5913,PAYLOAD,2023-05-08 20:14:46,15.69928958,0.0003214,70.0039,34.6639,265.6705,94.4124,3.2623e-05,3.712e-05,0.0,0 STARLINK-5913,1 55937U 23037Z   23128.84359853  .00003712  00000-0  32623-4 0  9998,2 55937  70.0039  34.6639 0003214 265.6705  94.4124 15.69928958  8365,6737.237,91.724,361.268,356.937,0.0
55937.0,STARLINK-5913,PAYLOAD,2023-05-09 03:53:32,15.69930356,0.0003192,70.0008,33.7633,266.0954,93.9877,2.3544e-05,2.62e-05,0.0,0 STARLINK-5913,1 55937U 23037Z   23129.16218207  .00002620  00000-0  23544-4 0  9990,2 55937  70.0008  33.7633 0003192 266.0954  93.9877 15.69930356  8758,6737.233,91.724,361.249,356.948,0.0
55937.0,STARLINK-5913,PAYLOAD,2023-05-10 01:18:04,15.69924034,0.0003359,70.0017,31.257,266.0875,93.9937,5.3029e-06,4.25e-06,0.0,0 STARLINK-5913,1 55937U 23037Z   23130.05421857  .00000425  00000-0  53029-5 0  9990,2 55937  70.0017  31.2570 0003359 266.0875  93.9937 15.69924034  8559,6737.251,91.724,361.379,356.853,0.0
55937.0,STARLINK-5913,PAYLOAD,2023-05-10 19:39:05,15.69928124,0.0003649,70.0006,29.1052,265.0034,95.0745,3.4474e-05,3.935e-05,0.0,0 STARLINK-5913,1 55937U 23037Z   23130.81881757  .00003935  00000-0  34474-4 0  9994,2 55937  70.0006  29.1052 0003649 265.0034  95.0745 15.69928124  8673,6737.24,91.724,361.563,356.646,0.0
55937.0,STARLINK-5913,PAYLOAD,2023-05-11 03:17:51,15.69933991,0.0003722,70.0014,28.2104,268.4836,91.5933,3.2332e-05,3.678e-05,0.0,0 STARLINK-5913,1 55937U 23037Z   23131.13739824  .00003678  00000-0  32332-4 0  9992,2 55937  70.0014  28.2104 0003722 268.4836  91.5933 15.69933991  8723,6737.223,91.724,361.595,356.58,0.0
55937.0,STARLINK-5913,PAYLOAD,2023-05-11 23:10:37,15.69940478,0.0003691,70.0007,25.8813,265.2702,94.8072,6.0341e-05,7.054e-05,0.0,0 STARLINK-5913,1 55937U 23037Z   23131.96571658  .00007054  00000-0  60341-4 0  9995,2 55937  70.0007  25.8813 0003691 265.2702  94.8072 15.69940478  9197,6737.204,91.723,361.556,356.583,0.0
55937.0,STARLINK-5913,PAYLOAD,2023-05-12 02:14:08,15.69937522,0.0003965,70.0002,25.5226,265.3986,94.6757,4.9846e-05,5.789e-05,0.0,0 STARLINK-5913,1 55937U 23037Z   23132.09314919  .00005789  00000-0  49846-4 0  9995,2 55937  70.0002  25.5226 0003965 265.3986  94.6757 15.69937522  8874,6737.213,91.723,361.749,356.406,0.0
55937.0,STARLINK-5913,PAYLOAD,2023-05-12 19:03:24,15.699277,0.000357,70.0012,23.5526,264.015,96.0639,1.4747e-05,1.561e-05,0.0,0 STARLINK-5913,1 55937U 23037Z   23132.79403820  .00001561  00000-0  14747-4 0  9998,2 55937  70.0012  23.5526 0003570 264.0150  96.0639 15.69927700  9320,6737.241,91.724,361.511,356.701,0.0
55937.0,STARLINK-5913,PAYLOAD,2023-05-13 02:42:10,15.69935394,0.000373,70.0005,22.6548,286.4836,73.595,6.1467e-05,7.188e-05,0.0,0 STARLINK-5913,1 55937U 23037Z   23133.11262055  .00007188  00000-0  61467-4 0  9990,2 55937  70.0005  22.6548 0003730 286.4836  73.5950 15.69935394  9035,6737.219,91.724,361.597,356.571,0.0
55937.0,STARLINK-5913,PAYLOAD,2023-05-13 19:31:27,15.69918071,0.0003397,70.003,20.6889,257.4611,102.6205,-3.5747e-06,-6.42e-06,0.0,0 STARLINK-5913,1 55937U 23037Z   23133.81351049 -.00000642  00000-0 -35747-5 0  9992,2 55937  70.0030  20.6889 0003397 257.4611 102.6205 15.69918071  9149,6737.268,91.725,361.422,356.845,0.0
55937.0,STARLINK-5913,PAYLOAD,2023-05-14 01:38:27,15.69930276,0.0003476,70.0014,19.97,262.1546,97.9256,3.8011e-05,4.361e-05,0.0,0 STARLINK-5913,1 55937U 23037Z   23134.06837377  .00004361  00000-0  38011-4 0  9999,2 55937  70.0014  19.9700 0003476 262.1546  97.9256 15.69930276  9527,6737.233,91.724,361.44,356.757,0.0
55937.0,STARLINK-5913,PAYLOAD,2023-05-14 19:59:29,15.69911626,0.0003056,70.003,17.8219,258.3565,101.7288,-1.7154e-05,-2.273e-05,0.0,0 STARLINK-5913,1 55937U 23037Z   23134.83298070 -.00002273  00000-0 -17154-4 0  9992,2 55937  70.0030  17.8219 0003056 258.3565 101.7288 15.69911626  9302,6737.287,91.725,361.211,357.093,0.0
55937.0,STARLINK-5913,PAYLOAD,2023-05-15 00:34:44,15.69930217,0.0003481,70.0013,17.2825,265.8032,94.2765,2.9202e-05,3.301e-05,0.0,0 STARLINK-5913,1 55937U 23037Z   23135.02412444  .00003301  00000-0  29202-4 0  9995,2 55937  70.0013  17.2825 0003481 265.8032  94.2765 15.69930217  9677,6737.234,91.724,361.444,356.753,0.0
55937.0,STARLINK-5913,PAYLOAD,2023-05-15 09:45:15,15.6992968,0.0003108,70.0021,16.2086,261.5921,98.4922,1.5891e-05,1.699e-05,0.0,0 STARLINK-5913,1 55937U 23037Z   23135.40642495  .00001699  00000-0  15891-4 0  9995,2 55937  70.0021  16.2086 0003108 261.5921  98.4922 15.69929680  9392,6737.235,91.724,361.194,357.006,0.0
55937.0,STARLINK-5913,PAYLOAD,2023-05-15 17:24:01,15.69922497,0.0003069,70.002,15.3131,255.4525,104.633,1.015e-05,1.008e-05,0.0,0 STARLINK-5913,1 55937U 23037Z   23135.72501194  .00001008  00000-0  10150-4 0  9997,2 55937  70.0020  15.3131 0003069 255.4525 104.6330 15.69922497  9785,6737.256,91.724,361.188,357.053,0.0
55937.0,STARLINK-5913,PAYLOAD,2023-05-16 01:02:46,15.69924738,0.0003001,70.0026,14.4167,253.3229,106.7637,1.57e-05,1.676e-05,0.0,0 STARLINK-5913,1 55937U 23037Z   23136.04359490  .00001676  00000-0  15700-4 0  9990,2 55937  70.0026  14.4167 0003001 253.3229 106.7637 15.69924738  9495,6737.249,91.724,361.136,357.092,0.0
55937.0,STARLINK-5913,PAYLOAD,2023-05-16 22:27:18,15.69929902,0.0003046,70.0016,11.9095,257.1762,102.9094,3.8109e-05,4.373e-05,0.0,0 STARLINK-5913,1 55937U 23037Z   23136.93562535  .00004373  00000-0  38109-4 0  9999,2 55937  70.0016  11.9095 0003046 257.1762 102.9094 15.69929902  9975,6737.235,91.724,361.152,357.047,0.0
55937.0,STARLINK-5913,PAYLOAD,2023-05-17 01:30:48,15.69908397,0.0003095,70.0008,11.5497,263.0303,97.0541,-1.1234e-05,-1.562e-05,0.0,0 STARLINK-5913,1 55937U 23037Z   23137.06306674 -.00001562  00000-0 -11234-4 0  9993,2 55937  70.0008  11.5497 0003095 263.0303  97.0541 15.69908397  9997,6737.296,91.725,361.246,357.076,0.0
55937.0,STARLINK-5913,PAYLOAD,2023-05-17 18:20:04,15.69923535,0.0003686,69.9997,9.5797,263.3106,96.767,1.7026e-05,1.835e-05,0.0,0 STARLINK-5913,1 55937U 23037Z   23137.76394332  .00001835  00000-0  17026-4 0  9994,2 55937  69.9997   9.5797 0003686 263.3106  96.7670 15.69923535 10106,6737.253,91.724,361.601,356.634,0.0
